NORAD_CAT_ID,OBJECT_NAME,OBJECT_TYPE,EPOCH,MEAN_MOTION,ECCENTRICITY,INCLINATION,RA_OF_ASC_NODE,ARG_OF_PERICENTER,MEAN_ANOMALY,BSTAR,MEAN_MOTION_DOT,MEAN_MOTION_DDOT,TLE_LINE0,TLE_LINE1,TLE_LINE2,SEMIMAJOR_AXIS,PERIOD,APOGEE,PERIGEE,DECAYED
49414.0,STARLINK-3146,PAYLOAD,2023-12-25 19:58:47,15.08841823,0.0001985,53.2163,242.2606,120.3629,239.756,9.4178e-05,1.211e-05,0.0,0 STARLINK-3146,1 49414U 21104G   23359.83249770  .00001211  00000-0  94178-4 0  9990,2 49414  53.2163 242.2606 0001985 120.3629 239.7560 15.08841823118228,6917.875,95.437,541.113,538.367,0.0
49414.0,STARLINK-3146,PAYLOAD,2023-12-25 21:34:11,15.08841323,0.0001657,53.2164,241.9635,110.6253,249.4917,7.581e-05,9.19e-06,0.0,0 STARLINK-3146,1 49414U 21104G   23359.89873887  .00000919  00000-0  75810-4 0  9994,2 49414  53.2164 241.9635 0001657 110.6253 249.4917 15.08841323117136,6917.876,95.437,540.888,538.595,0.0
49414.0,STARLINK-3146,PAYLOAD,2023-12-26 15:03:25,15.08839993,0.0001522,53.2156,238.6985,84.2397,275.8769,7.6903e-05,9.36e-06,0.0,0 STARLINK-3146,1 49414U 21104G   23360.62738176  .00000936  00000-0  76903-4 0  9991,2 49414  53.2156 238.6985 0001522  84.2397 275.8769 15.08839993117244,6917.88,95.438,540.798,538.693,0.0
49414.0,STARLINK-3146,PAYLOAD,2023-12-26 21:24:58,15.08843738,0.0001512,53.2155,237.5097,91.7196,268.3969,7.5974e-05,9.21e-06,0.0,0 STARLINK-3146,1 49414U 21104G   23360.89233942  .00000921  00000-0  75974-4 0  9992,2 49414  53.2155 237.5097 0001512  91.7196 268.3969 15.08843738117289,6917.869,95.437,540.78,538.688,0.0
49414.0,STARLINK-3146,PAYLOAD,2023-12-27 02:11:07,15.08847105,0.0001502,53.2154,236.6158,91.0827,269.0337,0.0001584,2.234e-05,0.0,0 STARLINK-3146,1 49414U 21104G   23361.09105790  .00002234  00000-0  15840-3 0  9998,2 49414  53.2154 236.6158 0001502  91.0827 269.0337 15.08847105118414,6917.859,95.437,540.763,538.685,0.0
49414.0,STARLINK-3146,PAYLOAD,2023-12-27 19:40:22,15.08838429,0.0001552,53.2152,233.3448,102.8365,257.28,2.7377e-05,1.48e-06,0.0,0 STARLINK-3146,1 49414U 21104G   23361.81970150  .00000148  00000-0  27377-4 0  9999,2 49414  53.2152 233.3448 0001552 102.8365 257.2800 15.08838429118526,6917.885,95.438,540.824,538.677,0.0
49414.0,STARLINK-3146,PAYLOAD,2023-12-27 21:15:45,15.08839073,0.0001541,53.2156,233.0448,97.4573,262.6594,6.5974e-05,7.62e-06,0.0,0 STARLINK-3146,1 49414U 21104G   23361.88594175  .00000762  00000-0  65974-4 0  9992,2 49414  53.2156 233.0448 0001541  97.4573 262.6594 15.08839073117430,6917.883,95.438,540.814,538.682,0.0
49414.0,STARLINK-3146,PAYLOAD,2023-12-28 14:45:01,15.08820845,0.0001484,53.2151,229.7758,93.68,266.4362,-0.00022002,-3.786e-05,0.0,0 STARLINK-3146,1 49414U 21104G   23362.61459667 -.00003786  00000-0 -22002-3 0  9995,2 49414  53.2151 229.7758 0001484  93.6800 266.4362 15.08820845117542,6917.939,95.439,540.831,538.777,0.0
49414.0,STARLINK-3146,PAYLOAD,2023-12-28 19:31:10,15.08820182,0.0001455,53.2153,228.8839,96.8226,263.2932,-0.00020923,-3.614e-05,0.0,0 STARLINK-3146,1 49414U 21104G   23362.81331897 -.00003614  00000-0 -20923-3 0  9991,2 49414  53.2153 228.8839 0001455  96.8226 263.2932 15.08820182118676,6917.941,95.439,540.813,538.799,0.0
49414.0,STARLINK-3146,PAYLOAD,2023-12-28 21:06:34,15.08823014,0.0001502,53.2164,228.5862,94.9022,265.2142,-9.3734e-05,-1.779e-05,0.0,0 STARLINK-3146,1 49414U 21104G   23362.87956617 -.00001779  00000-0 -93734-4 0  9991,2 49414  53.2164 228.5862 0001502  94.9022 265.2142 15.08823014117588,6917.932,95.439,540.836,538.758,0.0
49414.0,STARLINK-3146,PAYLOAD,2023-12-29 00:17:20,15.08827499,0.0001493,53.2167,227.9913,90.3344,269.7819,-5.7357e-05,-1.2e-05,0.0,0 STARLINK-3146,1 49414U 21104G   23363.01204366 -.00001200  00000-0 -57357-4 0  9995,2 49414  53.2167 227.9913 0001493  90.3344 269.7819 15.08827499117601,6917.919,95.438,540.816,538.751,0.0
49414.0,STARLINK-3146,PAYLOAD,2023-12-29 19:21:57,15.0884304,0.0001249,53.2156,224.422,81.1666,278.9467,0.00012678,1.731e-05,0.0,0 STARLINK-3146,1 49414U 21104G   23363.80691316  .00001731  00000-0  12678-3 0  9990,2 49414  53.2156 224.4220 0001249  81.1666 278.9467 15.08843040118822,6917.871,95.437,540.6,538.872,0.0
49414.0,STARLINK-3146,PAYLOAD,2023-12-29 22:32:43,15.08846053,0.0001363,53.2163,223.8277,87.624,272.4908,0.00018328,2.631e-05,0.0,0 STARLINK-3146,1 49414U 21104G   23363.93939170  .00002631  00000-0  18328-3 0  9995,2 49414  53.2163 223.8277 0001363  87.6240 272.4908 15.08846053117747,6917.862,95.437,540.67,538.784,0.0
49414.0,STARLINK-3146,PAYLOAD,2023-12-30 14:26:35,15.088472,0.0001364,53.2148,220.853,75.3226,284.7917,0.00034365,5.187e-05,0.0,0 STARLINK-3146,1 49414U 21104G   23364.60179564  .00005187  00000-0  34365-3 0  9991,2 49414  53.2148 220.8530 0001364  75.3226 284.7917 15.08847200117840,6917.858,95.437,540.667,538.78,0.0
49414.0,STARLINK-3146,PAYLOAD,2023-12-30 20:48:07,15.08857844,0.0001388,53.2141,219.6675,75.0368,285.0777,0.00042114,6.424e-05,0.0,0 STARLINK-3146,1 49414U 21104G   23364.86675005  .00006424  00000-0  42114-3 0  9996,2 49414  53.2141 219.6675 0001388  75.0368 285.0777 15.08857844117886,6917.826,95.436,540.651,538.731,0.0
49414.0,STARLINK-3146,PAYLOAD,2023-12-31 19:03:30,15.08853934,0.0001572,53.2146,215.5057,109.051,251.0652,7.0445e-05,8.34e-06,0.0,0 STARLINK-3146,1 49414U 21104G   23365.79410391  .00000834  00000-0  70445-4 0  9992,2 49414  53.2146 215.5057 0001572 109.0510 251.0652 15.08853934119122,6917.838,95.437,540.79,538.615,0.0
49414.0,STARLINK-3146,PAYLOAD,2023-12-31 20:38:53,15.08849743,0.0001381,53.2142,215.2076,79.8288,280.2859,9.3701e-06,-1.39e-06,0.0,0 STARLINK-3146,1 49414U 21104G   23365.86034601 -.00000139  00000-0  93701-5 0  9996,2 49414  53.2142 215.2076 0001381  79.8288 280.2859 15.08849743118035,6917.851,95.437,540.671,538.76,0.0
49414.0,STARLINK-3146,PAYLOAD,2024-01-01 14:08:08,15.08846038,0.0001452,53.2147,211.9328,96.5015,263.6143,-9.188e-05,-1.75e-05,0.0,0 STARLINK-3146,1 49414U 21104G   24001.58898446 -.00001750  00000-0 -91880-4 0  9994,2 49414  53.2147 211.9328 0001452  96.5015 263.6143 15.08846038118143,6917.862,95.437,540.731,538.722,0.0
49414.0,STARLINK-3146,PAYLOAD,2024-01-01 18:54:17,15.08844269,0.0001546,53.2162,211.0442,106.912,253.2042,-1.2646e-05,-4.89e-06,0.0,0 STARLINK-3146,1 49414U 21104G   24001.78770608 -.00000489  00000-0 -12646-4 0  9996,2 49414  53.2162 211.0442 0001546 106.9120 253.2042 15.08844269119277,6917.867,95.437,540.802,538.663,0.0
49414.0,STARLINK-3146,PAYLOAD,2024-01-01 23:40:27,15.0884572,0.0001498,53.2158,210.1513,104.4559,255.66,-1.1834e-05,-4.76e-06,0.0,0 STARLINK-3146,1 49414U 21104G   24001.98642420 -.00000476  00000-0 -11834-4 0  9992,2 49414  53.2158 210.1513 0001498 104.4559 255.6600 15.08845720118207,6917.863,95.437,540.764,538.692,0.0
49414.0,STARLINK-3146,PAYLOAD,2024-01-02 20:20:27,15.08842978,0.0001453,53.2161,206.2848,100.1059,260.0097,8.4076e-05,1.05e-05,0.0,0 STARLINK-3146,1 49414U 21104G   24002.84754151  .00001050  00000-0  84076-4 0  9998,2 49414  53.2161 206.2848 0001453 100.1059 260.0097 15.08842978118333,6917.871,95.437,540.741,538.731,0.0
49414.0,STARLINK-3146,PAYLOAD,2024-01-03 13:49:42,15.08837203,0.0001466,53.2161,203.014,97.2352,262.8807,5.0149e-05,5.1e-06,0.0,0 STARLINK-3146,1 49414U 21104G   24003.57618660  .00000510  00000-0  50149-4 0  9997,2 49414  53.2161 203.0140 0001466  97.2352 262.8807 15.08837203118445,6917.889,95.438,540.768,538.74,0.0
49414.0,STARLINK-3146,PAYLOAD,2024-01-03 20:11:15,15.08837194,0.0001376,53.2155,201.8237,96.5685,263.5464,3.9824e-05,3.46e-06,0.0,0 STARLINK-3146,1 49414U 21104G   24003.84114680  .00000346  00000-0  39824-4 0  9994,2 49414  53.2155 201.8237 0001376  96.5685 263.5464 15.08837194119584,6917.889,95.438,540.706,538.802,0.0
49414.0,STARLINK-3146,PAYLOAD,2024-01-03 23:22:01,15.08837241,0.0001376,53.2154,201.2291,95.905,264.2099,3.9093e-05,3.34e-06,0.0,0 STARLINK-3146,1 49414U 21104G   24003.97362719  .00000334  00000-0  39093-4 0  9991,2 49414  53.2154 201.2291 0001376  95.9050 264.2099 15.08837241118502,6917.889,95.438,540.706,538.802,0.0
49414.0,STARLINK-3146,PAYLOAD,2024-01-04 18:26:39,15.08836486,0.0001393,53.2156,197.66,97.4236,262.6914,1.3361e-05,-7.5e-07,0.0,0 STARLINK-3146,1 49414U 21104G   24004.76850958 -.00000075  00000-0  13361-4 0  9999,2 49414  53.2156 197.6600 0001393  97.4236 262.6914 15.08836486118629,6917.891,95.438,540.72,538.792,0.0
49414.0,STARLINK-3146,PAYLOAD,2024-01-05 11:55:53,15.08836175,0.0001342,53.2156,194.3891,95.3158,264.7987,5.716e-05,6.22e-06,0.0,0 STARLINK-3146,1 49414U 21104G   24005.49715046  .00000622  00000-0  57160-4 0  9990,2 49414  53.2156 194.3891 0001342  95.3158 264.7987 15.08836175119831,6917.892,95.438,540.685,538.829,0.0
49414.0,STARLINK-3146,PAYLOAD,2024-01-05 18:17:26,15.08837341,0.0001344,53.2156,193.1997,95.1721,264.9425,6.2473e-05,7.06e-06,0.0,0 STARLINK-3146,1 49414U 21104G   24005.76211025  .00000706  00000-0  62473-4 0  9994,2 49414  53.2156 193.1997 0001344  95.1721 264.9425 15.08837341118778,6917.889,95.438,540.683,538.824,0.0
49414.0,STARLINK-3146,PAYLOAD,2024-01-06 11:46:40,15.08839471,0.0001337,53.2157,189.9285,95.2059,264.9086,8.6674e-05,1.092e-05,0.0,0 STARLINK-3146,1 49414U 21104G   24006.49074944  .00001092  00000-0  86674-4 0  9990,2 49414  53.2157 189.9285 0001337  95.2059 264.9086 15.08839471118880,6917.882,95.438,540.672,538.822,0.0
49414.0,STARLINK-3146,PAYLOAD,2024-01-06 19:43:36,15.08841845,0.0001339,53.2158,188.4419,91.6717,268.4428,9.7268e-05,1.261e-05,0.0,0 STARLINK-3146,1 49414U 21104G   24006.82194819  .00001261  00000-0  97268-4 0  9990,2 49414  53.2158 188.4419 0001339  91.6717 268.4428 15.08841845120034,6917.875,95.437,540.666,538.813,0.0
49414.0,STARLINK-3146,PAYLOAD,2024-01-07 11:37:27,15.08841772,0.0001348,53.2158,185.4679,95.3518,264.7628,6.8328e-05,8e-06,0.0,0 STARLINK-3146,1 49414U 21104G   24007.48434879  .00000800  00000-0  68328-4 0  9999,2 49414  53.2158 185.4679 0001348  95.3518 264.7628 15.08841772119037,6917.875,95.437,540.673,538.807,0.0
